FLOCK 4G-8              
1 62613U 25009E   26068.72381419  .00013559  00000+0  50438-3 0  9996
2 62613  97.4045 151.2834 0003050 315.2538  44.8455 15.27623414 63721
STARLINK-33817          
1 63583U 25076Q   26068.09636431  .00036914  00000+0  13443-2 0  9998
2 63583  43.0025 324.7015 0001370 281.3058  78.7640 15.27578190 51734
